AMAZONAS 2              
1 35942U 09054A   22086.50656978 -.00000302  00000+0  00000+0 0  9999
2 35942   0.0412 125.1218 0002800 296.4426 244.7073  1.00270477 45717
COMSATBW-1              
1 35943U 09054B   22086.49866946  .00000004  00000+0  00000+0 0  9994
2 35943   0.0858  97.0356 0002658 303.4890  26.8871  1.00272860 45833
NSS-12                  
1 36032U 09058A   22086.49744840  .00000051  00000+0  00000+0 0  9998
2 36032   0.0136 110.3714 0002854 272.3950  38.1938  1.00271088 45446
THOR 6                  
1 36033U 09058B   22086.34240791 -.00000030  00000+0  00000+0 0  9997
2 36033   0.0094 163.4723 0001925 226.5000 277.1696  1.00270769 45535
INTELSAT 14 (IS-14)     
1 36097U 09064A   22086.47712659 -.00000293  00000+0  00000+0 0  9996
2 36097   0.0260 110.3460 0002652 277.0639 284.2353  1.00271378 45228
EUTELSAT 36B            
1 36101U 09065A   22086.49326193  .00000135  00000+0  00000+0 0  9993
2 36101   0.0688  13.8217 0005246   4.0353  20.4863  1.00273361 45341
INTELSAT 15 (IS-15)     
1 36106U 09067A   22086.50311758 -.00000205  00000+0  00000+0 0  9992
2 36106   0.0156 173.3775 0002497 214.3556  63.4498  1.00269364 25755
WGS F3 (USA 211)        
1 36108U 09068A   22086.51114164 -.00000322  00000+0  00000+0 0  9998
2 36108   0.1397  93.3559 0001110  14.1245  27.0618  0.99440105 31149
DIRECTV 12              
1 36131U 09075A   22086.55968743 -.00000123  00000+0  00000+0 0  9995
2 36131   0.0117 177.9079 0000088 211.6082 254.2065  1.00269954 31094
BEIDOU 3                
1 36287U 10001A   22086.58588758 -.00000300  00000+0  00000+0 0  9992
2 36287   1.9396  48.6855 0003241  12.5532 115.0756  1.00269616 44699
RADUGA-1M 2             
1 36358U 10002A   22086.50303036 -.00000203  00000+0  00000+0 0  9990
2 36358   0.0792 259.9956 0002334 167.5728  23.4077  1.00269110 34615
SDO                     
1 36395U 10005A   22086.56062368 -.00000071  00000+0  00000+0 0  9993
2 36395  31.4957 110.5432 0002152 249.2283 285.1004  1.00274125 44597
INTELSAT 16 (IS-16)     
1 36397U 10006A   22086.47088021 -.00000264  00000+0  00000+0 0  9994
2 36397   0.0179 170.0077 0002009 224.5880 243.6000  1.00269085 44182
GOES 15                 
1 36411U 10008A   22086.67580949  .00000036  00000+0  00000+0 0  9997
2 36411   0.0968 109.9122 0001287 314.4430 235.6784  1.00265525 44190
ECHOSTAR 14             
1 36499U 10010A   22086.54602394 -.00000020  00000+0  00000+0 0  9995
2 36499   0.0199 216.4077 0002635 145.3378 260.8631  1.00271388 31084
SES-1                   
1 36516U 10016A   22086.56076469 -.00000134  00000+0  00000+0 0  9997
2 36516   0.0146 188.6950 0002404 182.9175 274.2280  1.00269530 43574
ASTRA 3B                
1 36581U 10021A   22086.27551160  .00000117  00000+0  00000+0 0  9999
2 36581   0.0784  66.3960 0004463 279.4337 321.5373  1.00268021 43401
COMSATBW-2              
1 36582U 10021B   22086.34519889  .00000068  00000+0  00000+0 0  9995
2 36582   0.0758  94.6539 0002303 291.9873 295.5308  1.00270945 43488
BADR-5                  
1 36592U 10025A   22086.27594770  .00000125  00000+0  00000+0 0  9998
2 36592   0.0268 137.0727 0002205 281.4668 251.4661  1.00268774 37745
COMS 1                  
1 36744U 10032A   22086.51166497 -.00000364  00000+0  00000+0 0  9999
2 36744   0.8557  94.4184 0000803 282.5668 120.2752  1.00271730 35625
ARABSAT-5A              
1 36745U 10032B   22086.49212810  .00000133  00000+0  00000+0 0  9991
2 36745   0.0631  38.1624 0003023   3.0337 351.3337  1.00273363 43170
ECHOSTAR 15             
1 36792U 10034A   22086.50674339 -.00000301  00000+0  00000+0 0  9993
2 36792   0.0270  84.8230 0001854 277.9278 302.9247  1.00270222 42866
BEIDOU 5                
1 36828U 10036A   22086.14664282 -.00000170  00000+0  00000+0 0  9995
2 36828  54.1909 176.9835 0027689 184.7567 344.2266  1.00270144 42750
NILESAT 201             
1 36830U 10037A   22086.41261850 -.00000077  00000+0  00000+0 0  9999
2 36830   0.0375 166.9239 0005760 226.2929 293.1339  1.00272243 42897
RASCOM-QAF 1R           
1 36831U 10037B   22086.34310566 -.00000001  00000+0  00000+0 0  9998
2 36831   0.0401 108.4680 0005305 247.0342 315.6313  1.00272299 42820
AEHF-1 (USA 214)        
1 36868U 10039A   22086.34328009  .00000009  00000+0  00000+0 0  9998
2 36868   4.3282  87.8725 0004689 337.9399 246.5558  1.00274820 38188
CHINASAT 6A (ZX 6A)     
1 37150U 10042A   22086.41113580 -.00000220  00000+0  00000+0 0  9997
2 37150   0.2401  97.9431 0004509 293.7817 285.2687  0.99704746 42496
QZS-1 (MICHIBIKI-1)     
1 37158U 10045A   22086.46691949 -.00000139  00000+0  00000+0 0  9992
2 37158  42.2451 134.5194 0751685 270.0889  91.2430  1.00278231 42275
XM-5                    
1 37185U 10053A   22086.54936684 -.00000043  00000+0  00000+0 0  9992
2 37185   0.0155 220.7650 0000927 292.7988 113.9495  1.00269299 42019
BSAT-3B                 
1 37207U 10056B   22086.51577309 -.00000371  00000+0  00000+0 0  9996
2 37207   0.0556 357.6300 0003196 345.4792 137.3241  1.00271342 36655
BEIDOU 6                
1 37210U 10057A   22086.52479856 -.00000132  00000+0  00000+0 0  9995
2 37210   1.0233  55.6395 0003360 144.2490 333.9557  1.00270903 41814
SKYTERRA 1              
1 37218U 10061A   22086.56097701 -.00000136  00000+0  00000+0 0  9991
2 37218   2.3593  29.3914 0003851   5.7689 250.4379  1.00270836 41759
ZHONGXING-20A           
1 37234U 10064A   22086.53104971 -.00000369  00000+0  00000+0 0  9995
2 37234   2.4427  89.4875 0002923 274.5096 138.5162  1.00271370 41563
HYLAS 1                 
1 37237U 10065A   22086.54253429  .00000007  00000+0  00000+0 0  9991
2 37237   1.7112  91.0430 0001833 275.4932 250.4434  1.00272617 41519
INTELSAT 17 (IS-17)     
1 37238U 10065B   22086.49928000 -.00000022  00000+0  00000+0 0  9998
2 37238   0.0177 186.8033 0002573 188.5200  55.3037  1.00273035 37767
BEIDOU 7                
1 37256U 10068A   22086.15045069 -.00000173  00000+0  00000+0 0  9996
2 37256  50.3581 290.6273 0018194 182.4461 234.3636  1.00275937 41326
EUTELSAT KA-SAT 9A      
1 37258U 10069A   22086.35257685  .00000043  00000+0  00000+0 0  9995
2 37258   0.0625 264.1016 0004138 173.7942 242.8126  1.00274074 28526
HISPASAT 30W-5          
1 37264U 10070A   22086.39840990 -.00000236  00000+0  00000+0 0  9990
2 37264   0.0420 114.0591 0003484 286.4032 257.7185  1.00273126 37710
KOREASAT 6              
1 37265U 10070B   22086.52618649 -.00000382  00000+0  00000+0 0  9992
2 37265   0.0232  92.4527 0001254 292.9732 104.9203  1.00271767 41305
BEIDOU 8                
1 37384U 11013A   22086.16084304 -.00000167  00000+0  00000+0 0  9998
2 37384  60.1779  55.0710 0018841 195.3419 100.8954  1.00277726 40192
INTELSAT NEW DAWN       
1 37392U 11016A   22086.58092736  .00000135  00000+0  00000+0 0  9998
2 37392   0.0217 143.9036 0001602 290.8112 352.1985  1.00273244 37819
YAHSAT 1A               
1 37393U 11016B   22086.33105133  .00000082  00000+0  00000+0 0  9999
2 37393   0.0175 213.9576 0000866 218.7069 283.7135  1.00269656 26929
SBIRS GEO-1 (USA 230)   
1 37481U 11019A   22086.49928000 -.00000027  00000+0  00000+0 0  9993
2 37481   1.8621  19.3336 0001862 348.5271  62.9717  1.00272331 39930
TELSTAR 14R             
1 37602U 11021A   22086.50674339 -.00000300  00000+0  00000+0 0  9990
2 37602   0.0153   4.5994 0002932  10.0154 289.7022  1.00271032 40366
GSAT-8                  
1 37605U 11022A   22086.49709954  .00000065  00000+0  00000+0 0  9991
2 37605   0.0242 167.6013 0005570 126.6661 124.6712  1.00269337 37745
ST-2                    
1 37606U 11022B   22086.50364090 -.00000232  00000+0  00000+0 0  9999
2 37606   0.0148 190.0937 0001740 214.7575  49.3482  1.00272415 39801
CHINASAT 10 (ZX 10)     
1 37677U 11026A   22086.52618649 -.00000372  00000+0  00000+0 0  9990
2 37677   0.0739 254.4669 0001632 266.7371 323.5834  1.00267640 39513
TIANLIAN 1-02           
1 37737U 11032A   22086.63320009 -.00000069  00000+0  00000+0 0  9999
2 37737   2.1179  73.7516 0081336 355.7027 150.4360  1.00272984 39259
GSAT-12                 
1 37746U 11034A   22086.49561683  .00000105  00000+0  00000+0 0  9990
2 37746   1.1726  93.3889 0009717 342.1975 335.6675  1.00271014 28024
SES-3                   
1 37748U 11035A   22086.55968666 -.00000122  00000+0  00000+0 0  9992
2 37748   0.0420  32.2435 0002496 342.1978 268.9968  1.00271559 39225
KAZSAT-2                
1 37749U 11035B   22086.50337924 -.00000218  00000+0  00000+0 0  9991
2 37749   0.0497 297.2489 0001604 140.2845  15.0625  1.00270416 37929
BEIDOU 9                
1 37763U 11038A   22086.15395300 -.00000104  00000+0  00000+0 0  9997
2 37763  54.4753 179.4650 0091173 226.3369 285.6785  1.00252870 39176
ASTRA 1N                
1 37775U 11041A   22086.16577193  .00000100  00000+0  00000+0 0  9992
2 37775   0.0242  44.9665 0005106 334.8209 243.6540  1.00271062 29053
BSAT-3C (JCSAT-110R)    
1 37776U 11041B   22086.52618649 -.00000371  00000+0  00000+0 0  9996
2 37776   0.0445  15.0562 0000037 132.4586 336.7754  1.00272945 35017
PAKSAT-1R               
1 37779U 11042A   22086.49369803  .00000134  00000+0  00000+0 0  9997
2 37779   0.0244 266.0360 0003665 141.5217 353.0499  1.00272395 39003
CHINASAT 1A (ZX 1A)     
1 37804U 11047A   22086.53104971 -.00000358  00000+0  00000+0 0  9998
2 37804   0.0481 335.7233 0001899  31.3349 138.8809  1.00269350 11895
SES-2                   
1 37809U 11049A   22086.46869975 -.00000215  00000+0  00000+0 0  9991
2 37809   0.0210  91.1344 0002796 279.6965 255.7550  1.00271445 38499
ARABSAT-5C              
1 37810U 11049B   22086.27481385  .00000104  00000+0  00000+0 0  9993
2 37810   0.0572   3.3995 0000744 122.5687 177.6182  1.00270981 38584
EUTELSAT 7 WEST A       
1 37816U 11051A   22086.41261850 -.00000080  00000+0  00000+0 0  9995
2 37816   0.0635  12.4950 0001974 152.7328 160.8362  1.00270635 38428
